[{"OBJECT_NAME":"GREENCUBE (IO-117)","OBJECT_ID":"2022-080E","EPOCH":"2026-03-02T17:29:44.105280","MEAN_MOTION":6.42583122,"ECCENTRICITY":0.00090439,"INCLINATION":70.1617,"RA_OF_ASC_NODE":335.2737,"ARG_OF_PERICENTER":313.3588,"MEAN_ANOMALY":46.6318,"EPHEMERIS_TYPE":0,"CLASSIFICATION_TYPE":"U","NORAD_CAT_ID":53109,"ELEMENT_SET_NO":999,"REV_AT_EPOCH":8522,"BSTAR":0,"MEAN_MOTION_DOT":-3.0e-8,"MEAN_MOTION_DDOT":0},{"OBJECT_NAME":"UMKA 1 (RS40S)","OBJECT_ID":"2023-091G","EPOCH":"2026-03-03T02:50:55.469184","MEAN_MOTION":15.19475886,"ECCENTRICITY":0.001446,"INCLINATION":97.5193,"RA_OF_ASC_NODE":121.2518,"ARG_OF_PERICENTER":126.7076,"MEAN_ANOMALY":233.5489,"EPHEMERIS_TYPE":0,"CLASSIFICATION_TYPE":"U","NORAD_CAT_ID":57172,"ELEMENT_SET_NO":999,"REV_AT_EPOCH":14789,"BSTAR":0.00040179,"MEAN_MOTION_DOT":8.48e-5,"MEAN_MOTION_DDOT":0},{"OBJECT_NAME":"CUBESX-HSE 3 (RS42S)","OBJECT_ID":"2023-091N","EPOCH":"2026-03-03T05:07:29.234784","MEAN_MOTION":15.2836205,"ECCENTRICITY":0.0012828,"INCLINATION":97.5224,"RA_OF_ASC_NODE":126.6191,"ARG_OF_PERICENTER":107.6884,"MEAN_ANOMALY":252.5757,"EPHEMERIS_TYPE":0,"CLASSIFICATION_TYPE":"U","NORAD_CAT_ID":57178,"ELEMENT_SET_NO":999,"REV_AT_EPOCH":14822,"BSTAR":0.00058555,"MEAN_MOTION_DOT":0.00016152,"MEAN_MOTION_DDOT":0},{"OBJECT_NAME":"MONITOR-3 (RS58S)","OBJECT_ID":"2023-091Q","EPOCH":"2026-03-03T05:16:00.740928","MEAN_MOTION":15.25538662,"ECCENTRICITY":0.0013754,"INCLINATION":97.5218,"RA_OF_ASC_NODE":124.9977,"ARG_OF_PERICENTER":112.3384,"MEAN_ANOMALY":247.9313,"EPHEMERIS_TYPE":0,"CLASSIFICATION_TYPE":"U","NORAD_CAT_ID":57180,"ELEMENT_SET_NO":999,"REV_AT_EPOCH":14812,"BSTAR":0.00052385,"MEAN_MOTION_DOT":0.00013256,"MEAN_MOTION_DDOT":0},{"OBJECT_NAME":"MONITOR-4 (RS57S)","OBJECT_ID":"2023-091S","EPOCH":"2026-03-03T04:55:06.896352","MEAN_MOTION":15.25623678,"ECCENTRICITY":0.0013701,"INCLINATION":97.5213,"RA_OF_ASC_NODE":124.9477,"ARG_OF_PERICENTER":112.8437,"MEAN_ANOMALY":247.4249,"EPHEMERIS_TYPE":0,"CLASSIFICATION_TYPE":"U","NORAD_CAT_ID":57182,"ELEMENT_SET_NO":999,"REV_AT_EPOCH":14812,"BSTAR":0.00053341,"MEAN_MOTION_DOT":0.00013535,"MEAN_MOTION_DDOT":0},{"OBJECT_NAME":"MONITOR-2 (RS39S)","OBJECT_ID":"2023-091U","EPOCH":"2026-03-03T05:06:09.905760","MEAN_MOTION":15.17817073,"ECCENTRICITY":0.0012909,"INCLINATION":97.5218,"RA_OF_ASC_NODE":121.1888,"ARG_OF_PERICENTER":118.6779,"MEAN_ANOMALY":241.5754,"EPHEMERIS_TYPE":0,"CLASSIFICATION_TYPE":"U","NORAD_CAT_ID":57184,"ELEMENT_SET_NO":999,"REV_AT_EPOCH":14787,"BSTAR":0.00032484,"MEAN_MOTION_DOT":6.516e-5,"MEAN_MOTION_DDOT":0},{"OBJECT_NAME":"SVYATOBOR 1 (RS60S)","OBJECT_ID":"2023-091X","EPOCH":"2026-03-03T04:52:20.214336","MEAN_MOTION":15.24639378,"ECCENTRICITY":0.0011232,"INCLINATION":97.5224,"RA_OF_ASC_NODE":125.518,"ARG_OF_PERICENTER":105.0834,"MEAN_ANOMALY":255.1647,"EPHEMERIS_TYPE":0,"CLASSIFICATION_TYPE":"U","NORAD_CAT_ID":57187,"ELEMENT_SET_NO":999,"REV_AT_EPOCH":14815,"BSTAR":0.00047163,"MEAN_MOTION_DOT":0.00011597,"MEAN_MOTION_DDOT":0},{"OBJECT_NAME":"VIZARD-METEO (RS38S)","OBJECT_ID":"2023-091Z","EPOCH":"2026-03-03T04:03:17.754336","MEAN_MOTION":15.3245513,"ECCENTRICITY":0.0009059,"INCLINATION":97.5212,"RA_OF_ASC_NODE":129.7518,"ARG_OF_PERICENTER":92.4861,"MEAN_ANOMALY":267.7418,"EPHEMERIS_TYPE":0,"CLASSIFICATION_TYPE":"U","NORAD_CAT_ID":57189,"ELEMENT_SET_NO":999,"REV_AT_EPOCH":14843,"BSTAR":0.00066204,"MEAN_MOTION_DOT":0.00020725,"MEAN_MOTION_DDOT":0},{"OBJECT_NAME":"NANOZOND 1 (RS49S)","OBJECT_ID":"2023-091AA","EPOCH":"2026-03-03T04:38:41.995104","MEAN_MOTION":15.71713593,"ECCENTRICITY":6.44e-5,"INCLINATION":97.5095,"RA_OF_ASC_NODE":141.9317,"ARG_OF_PERICENTER":71.563,"MEAN_ANOMALY":288.5702,"EPHEMERIS_TYPE":0,"CLASSIFICATION_TYPE":"U","NORAD_CAT_ID":57190,"ELEMENT_SET_NO":999,"REV_AT_EPOCH":14925,"BSTAR":0.0014982,"MEAN_MOTION_DOT":0.00197171,"MEAN_MOTION_DDOT":0},{"OBJECT_NAME":"POLYTECH-UNIVERSE 3 (RS46S)","OBJECT_ID":"2023-091AB","EPOCH":"2026-03-03T04:29:58.297920","MEAN_MOTION":15.17996997,"ECCENTRICITY":0.0017064,"INCLINATION":97.5191,"RA_OF_ASC_NODE":120.671,"ARG_OF_PERICENTER":135.0227,"MEAN_ANOMALY":225.2392,"EPHEMERIS_TYPE":0,"CLASSIFICATION_TYPE":"U","NORAD_CAT_ID":57191,"ELEMENT_SET_NO":999,"REV_AT_EPOCH":14786,"BSTAR":0.00034154,"MEAN_MOTION_DOT":6.902e-5,"MEAN_MOTION_DDOT":0},{"OBJECT_NAME":"UTMN 2 (RS27S)","OBJECT_ID":"2023-091AP","EPOCH":"2026-03-03T05:24:48.263904","MEAN_MOTION":15.29248147,"ECCENTRICITY":0.000995,"INCLINATION":97.5215,"RA_OF_ASC_NODE":128.1344,"ARG_OF_PERICENTER":96.5158,"MEAN_ANOMALY":263.7214,"EPHEMERIS_TYPE":0,"CLASSIFICATION_TYPE":"U","NORAD_CAT_ID":57203,"ELEMENT_SET_NO":999,"REV_AT_EPOCH":14833,"BSTAR":0.00056232,"MEAN_MOTION_DOT":0.00015919,"MEAN_MOTION_DDOT":0},{"OBJECT_NAME":"KUZGTU 1 (RS47S)","OBJECT_ID":"2023-091AV","EPOCH":"2026-03-03T04:25:47.609184","MEAN_MOTION":15.27248212,"ECCENTRICITY":0.0012975,"INCLINATION":97.5199,"RA_OF_ASC_NODE":125.7209,"ARG_OF_PERICENTER":110.4415,"MEAN_ANOMALY":249.8218,"EPHEMERIS_TYPE":0,"CLASSIFICATION_TYPE":"U","NORAD_CAT_ID":57217,"ELEMENT_SET_NO":999,"REV_AT_EPOCH":14818,"BSTAR":0.00060186,"MEAN_MOTION_DOT":0.00016051,"MEAN_MOTION_DDOT":0},{"OBJECT_NAME":"SONATE-2","OBJECT_ID":"2024-043Q","EPOCH":"2026-03-02T22:47:42.725184","MEAN_MOTION":15.50720187,"ECCENTRICITY":0.0007816,"INCLINATION":97.5387,"RA_OF_ASC_NODE":206.5586,"ARG_OF_PERICENTER":230.0363,"MEAN_ANOMALY":130.0203,"EPHEMERIS_TYPE":0,"CLASSIFICATION_TYPE":"U","NORAD_CAT_ID":59112,"ELEMENT_SET_NO":999,"REV_AT_EPOCH":11138,"BSTAR":0.0007331,"MEAN_MOTION_DOT":0.00042255,"MEAN_MOTION_DDOT":0},{"OBJECT_NAME":"MESAT1","OBJECT_ID":"2024-125G","EPOCH":"2026-03-03T03:05:44.432736","MEAN_MOTION":15.52892931,"ECCENTRICITY":0.0011156,"INCLINATION":97.2463,"RA_OF_ASC_NODE":277.9072,"ARG_OF_PERICENTER":249.9634,"MEAN_ANOMALY":110.0419,"EPHEMERIS_TYPE":0,"CLASSIFICATION_TYPE":"U","NORAD_CAT_ID":60209,"ELEMENT_SET_NO":999,"REV_AT_EPOCH":9305,"BSTAR":0.00076679,"MEAN_MOTION_DOT":0.00047865,"MEAN_MOTION_DDOT":0},{"OBJECT_NAME":"OOV-CUBE (TUBSAT-30)","OBJECT_ID":"2024-128F","EPOCH":"2026-03-02T23:21:23.793120","MEAN_MOTION":15.0218599,"ECCENTRICITY":0.0055096,"INCLINATION":61.9933,"RA_OF_ASC_NODE":235.786,"ARG_OF_PERICENTER":111.0571,"MEAN_ANOMALY":249.6424,"EPHEMERIS_TYPE":0,"CLASSIFICATION_TYPE":"U","NORAD_CAT_ID":60240,"ELEMENT_SET_NO":999,"REV_AT_EPOCH":9015,"BSTAR":0.00032189,"MEAN_MOTION_DOT":4.186e-5,"MEAN_MOTION_DDOT":0},{"OBJECT_NAME":"COLIBRI-S (RS67S)","OBJECT_ID":"2024-199M","EPOCH":"2026-03-03T03:15:27.961920","MEAN_MOTION":15.43081002,"ECCENTRICITY":0.0008076,"INCLINATION":97.3172,"RA_OF_ASC_NODE":295.2666,"ARG_OF_PERICENTER":314.0918,"MEAN_ANOMALY":45.9665,"EPHEMERIS_TYPE":0,"CLASSIFICATION_TYPE":"U","NORAD_CAT_ID":61746,"ELEMENT_SET_NO":999,"REV_AT_EPOCH":12103,"BSTAR":0.00056398,"MEAN_MOTION_DOT":0.0002491,"MEAN_MOTION_DDOT":0}]
