GREENCUBE (IO-117)      
1 53109U 22080E   26061.72898270 -.00000003  00000+0  00000+0 0  9990
2 53109  70.1617 335.2737 0009043 313.3588  46.6318  6.42583122 85227
UMKA 1 (RS40S)          
1 57172U 23091G   26062.11869756  .00008480  00000+0  40179-3 0  9999
2 57172  97.5193 121.2518 0014460 126.7076 233.5489 15.19475886147899
CUBESX-HSE 3 (RS42S)    
1 57178U 23091N   26062.21353281  .00016152  00000+0  58555-3 0  9999
2 57178  97.5224 126.6191 0012828 107.6884 252.5757 15.28362050148222
MONITOR-3 (RS58S)       
1 57180U 23091Q   26062.21945302  .00013256  00000+0  52385-3 0  9990
2 57180  97.5218 124.9977 0013754 112.3384 247.9313 15.25538662148124
MONITOR-4 (RS57S)       
1 57182U 23091S   26062.20494093  .00013535  00000+0  53341-3 0  9990
2 57182  97.5213 124.9477 0013701 112.8437 247.4249 15.25623678148127
MONITOR-2 (RS39S)       
1 57184U 23091U   26062.21261465  .00006516  00000+0  32484-3 0  9994
2 57184  97.5218 121.1888 0012909 118.6779 241.5754 15.17817073147873
SVYATOBOR 1 (RS60S)     
1 57187U 23091X   26062.20301174  .00011597  00000+0  47163-3 0  9993
2 57187  97.5224 125.5180 0011232 105.0834 255.1647 15.24639378148158
VIZARD-METEO (RS38S)    
1 57189U 23091Z   26062.16895549  .00020725  00000+0  66204-3 0  9994
2 57189  97.5212 129.7518 0009059  92.4861 267.7418 15.32455130148438
NANOZOND 1 (RS49S)      
1 57190U 23091AA  26062.19354161  .00197171  00000+0  14982-2 0  9994
2 57190  97.5095 141.9317 0000644  71.5630 288.5702 15.71713593149256
POLYTECH-UNIVERSE 3 (R*)
1 57191U 23091AB  26062.18748030  .00006902  00000+0  34154-3 0  9991
2 57191  97.5191 120.6710 0017064 135.0227 225.2392 15.17996997147866
UTMN 2 (RS27S)          
1 57203U 23091AP  26062.22555861  .00015919  00000+0  56232-3 0  9997
2 57203  97.5215 128.1344 0009950  96.5158 263.7214 15.29248147148335
KUZGTU 1 (RS47S)        
1 57217U 23091AV  26062.18457881  .00016051  00000+0  60186-3 0  9991
2 57217  97.5199 125.7209 0012975 110.4415 249.8218 15.27248212148180
SONATE-2                
1 59112U 24043Q   26061.94980006  .00042255  00000+0  73310-3 0  9996
2 59112  97.5387 206.5586 0007816 230.0363 130.0203 15.50720187111389
MESAT1                  
1 60209U 24125G   26062.12898649  .00047865  00000+0  76679-3 0  9991
2 60209  97.2463 277.9072 0011156 249.9634 110.0419 15.52892931 93053
OOV-CUBE (TUBSAT-30)    
1 60240U 24128F   26061.97319205  .00004186  00000+0  32189-3 0  9994
2 60240  61.9933 235.7860 0055096 111.0571 249.6424 15.02185990 90153
COLIBRI-S (RS67S)       
1 61746U 24199M   26062.13574030  .00024910  00000+0  56398-3 0  9997
2 61746  97.3172 295.2666 0008076 314.0918  45.9665 15.43081002121034
